JILIN-1                 
1 40961U 15057D   26204.83766028  .00000722  00000+0  10599-3 0  9999
2 40961  97.6525 202.3884 0017942 139.8929 220.3610 14.78211475581027
JILIN-1 03              
1 41914U 17002B   26204.82025551  .00013946  00000+0  32428-3 0  9995
2 41914  97.1959 211.4103 0007234  56.0116 304.1818 15.42406201527507
JILIN-1 04              
1 43022U 17074A   26204.85921257  .00013325  00000+0  30098-3 0  9999
2 43022  97.4873 315.4773 0005056  77.0706 283.1105 15.43310200479924
JILIN-1 05              
1 43023U 17074B   26204.84284999  .00008421  00000+0  25514-3 0  9992
2 43023  97.4877 311.5099 0006616 100.8757 259.3231 15.34390284479623
JILIN-1 06              
1 43024U 17074C   26204.82044432  .00006605  00000+0  20259-3 0  9990
2 43024  97.4802 308.4464 0008416 108.7697 251.4459 15.34077850479450
JILIN-1 07              
1 43159U 18008E   26204.85921316  .00008615  00000+0  25365-3 0  9991
2 43159  97.1773 223.8221 0006179 288.4713  71.5859 15.35273057470626
JILIN-1 08              
1 43160U 18008F   26204.82061727  .00005901  00000+0  18122-3 0  9999
2 43160  97.1811 223.0586 0004383 314.8625  45.2262 15.34084155470565
JILIN-1 09              
1 43943U 19005B   26204.83214006  .00004243  00000+0  19565-3 0  9997
2 43943  97.4740 299.4894 0001521  14.7320 345.3959 15.20795295414717
JILIN-1 10              
1 43946U 19005E   26204.84958189  .00005753  00000+0  22583-3 0  9999
2 43946  97.4793 303.6649 0009278 142.2120 217.9771 15.26079825414903
