{"fetched_at":"2026-07-24T07:06:36.886Z","source":"https://celestrak.org/NORAD/elements/gp.php?NAME=JILIN&FORMAT=JSON","constellation":"jilin-1-early","records":[{"OBJECT_NAME":"JILIN-1","OBJECT_ID":"2015-057D","EPOCH":"2026-07-23T20:06:13.848192","CLASSIFICATION_TYPE":"U","MEAN_MOTION":14.78211475,"ECCENTRICITY":0.0017942,"INCLINATION":97.6525,"RA_OF_ASC_NODE":202.3884,"ARG_OF_PERICENTER":139.8929,"MEAN_ANOMALY":220.361,"EPHEMERIS_TYPE":0,"NORAD_CAT_ID":40961,"ELEMENT_SET_NO":999,"REV_AT_EPOCH":58102,"BSTAR":0.00010599,"MEAN_MOTION_DOT":0.00000722,"MEAN_MOTION_DDOT":0},{"OBJECT_NAME":"JILIN-1 03","OBJECT_ID":"2017-002B","EPOCH":"2026-07-23T19:41:10.076064","CLASSIFICATION_TYPE":"U","MEAN_MOTION":15.42406201,"ECCENTRICITY":0.0007234,"INCLINATION":97.1959,"RA_OF_ASC_NODE":211.4103,"ARG_OF_PERICENTER":56.0116,"MEAN_ANOMALY":304.1818,"EPHEMERIS_TYPE":0,"NORAD_CAT_ID":41914,"ELEMENT_SET_NO":999,"REV_AT_EPOCH":52750,"BSTAR":0.00032428,"MEAN_MOTION_DOT":0.00013946,"MEAN_MOTION_DDOT":0},{"OBJECT_NAME":"JILIN-1 04","OBJECT_ID":"2017-074A","EPOCH":"2026-07-23T20:37:15.966048","CLASSIFICATION_TYPE":"U","MEAN_MOTION":15.433102,"ECCENTRICITY":0.0005056,"INCLINATION":97.4873,"RA_OF_ASC_NODE":315.4773,"ARG_OF_PERICENTER":77.0706,"MEAN_ANOMALY":283.1105,"EPHEMERIS_TYPE":0,"NORAD_CAT_ID":43022,"ELEMENT_SET_NO":999,"REV_AT_EPOCH":47992,"BSTAR":0.00030098,"MEAN_MOTION_DOT":0.00013325,"MEAN_MOTION_DDOT":0},{"OBJECT_NAME":"JILIN-1 05","OBJECT_ID":"2017-074B","EPOCH":"2026-07-23T20:13:42.239136","CLASSIFICATION_TYPE":"U","MEAN_MOTION":15.34390284,"ECCENTRICITY":0.0006616,"INCLINATION":97.4877,"RA_OF_ASC_NODE":311.5099,"ARG_OF_PERICENTER":100.8757,"MEAN_ANOMALY":259.3231,"EPHEMERIS_TYPE":0,"NORAD_CAT_ID":43023,"ELEMENT_SET_NO":999,"REV_AT_EPOCH":47962,"BSTAR":0.00025514,"MEAN_MOTION_DOT":0.00008421,"MEAN_MOTION_DDOT":0},{"OBJECT_NAME":"JILIN-1 06","OBJECT_ID":"2017-074C","EPOCH":"2026-07-23T19:41:26.389248","CLASSIFICATION_TYPE":"U","MEAN_MOTION":15.3407785,"ECCENTRICITY":0.0008416,"INCLINATION":97.4802,"RA_OF_ASC_NODE":308.4464,"ARG_OF_PERICENTER":108.7697,"MEAN_ANOMALY":251.4459,"EPHEMERIS_TYPE":0,"NORAD_CAT_ID":43024,"ELEMENT_SET_NO":999,"REV_AT_EPOCH":47945,"BSTAR":0.00020259,"MEAN_MOTION_DOT":0.00006605,"MEAN_MOTION_DDOT":0},{"OBJECT_NAME":"JILIN-1 07","OBJECT_ID":"2018-008E","EPOCH":"2026-07-23T20:37:16.017024","CLASSIFICATION_TYPE":"U","MEAN_MOTION":15.35273057,"ECCENTRICITY":0.0006179,"INCLINATION":97.1773,"RA_OF_ASC_NODE":223.8221,"ARG_OF_PERICENTER":288.4713,"MEAN_ANOMALY":71.5859,"EPHEMERIS_TYPE":0,"NORAD_CAT_ID":43159,"ELEMENT_SET_NO":999,"REV_AT_EPOCH":47062,"BSTAR":0.00025365,"MEAN_MOTION_DOT":0.00008615,"MEAN_MOTION_DDOT":0},{"OBJECT_NAME":"JILIN-1 08","OBJECT_ID":"2018-008F","EPOCH":"2026-07-23T19:41:41.332128","CLASSIFICATION_TYPE":"U","MEAN_MOTION":15.34084155,"ECCENTRICITY":0.0004383,"INCLINATION":97.1811,"RA_OF_ASC_NODE":223.0586,"ARG_OF_PERICENTER":314.8625,"MEAN_ANOMALY":45.2262,"EPHEMERIS_TYPE":0,"NORAD_CAT_ID":43160,"ELEMENT_SET_NO":999,"REV_AT_EPOCH":47056,"BSTAR":0.00018122,"MEAN_MOTION_DOT":0.00005901,"MEAN_MOTION_DDOT":0},{"OBJECT_NAME":"JILIN-1 09","OBJECT_ID":"2019-005B","EPOCH":"2026-07-23T19:58:16.901184","CLASSIFICATION_TYPE":"U","MEAN_MOTION":15.20795295,"ECCENTRICITY":0.0001521,"INCLINATION":97.474,"RA_OF_ASC_NODE":299.4894,"ARG_OF_PERICENTER":14.732,"MEAN_ANOMALY":345.3959,"EPHEMERIS_TYPE":0,"NORAD_CAT_ID":43943,"ELEMENT_SET_NO":999,"REV_AT_EPOCH":41471,"BSTAR":0.00019565,"MEAN_MOTION_DOT":0.00004243,"MEAN_MOTION_DDOT":0},{"OBJECT_NAME":"JILIN-1 10","OBJECT_ID":"2019-005E","EPOCH":"2026-07-23T20:23:23.875296","CLASSIFICATION_TYPE":"U","MEAN_MOTION":15.26079825,"ECCENTRICITY":0.0009278,"INCLINATION":97.4793,"RA_OF_ASC_NODE":303.6649,"ARG_OF_PERICENTER":142.212,"MEAN_ANOMALY":217.9771,"EPHEMERIS_TYPE":0,"NORAD_CAT_ID":43946,"ELEMENT_SET_NO":999,"REV_AT_EPOCH":41490,"BSTAR":0.00022583,"MEAN_MOTION_DOT":0.00005753,"MEAN_MOTION_DDOT":0}]}
